EUTELSAT 7A             
1 28187U 04008A   25198.67257659  .00000107  00000+0  00000+0 0  9996
2 28187   4.9761  76.0286 0001542  71.1695 251.4364  1.00272007 77991
EUTELSAT 174A           
1 28924U 05052A   25198.87744494  .00000013  00000+0  00000+0 0  9991
2 28924   3.3682  80.7204 0006039  39.1645 305.8818  1.00271236 48979
EUTELSAT HOTBIRD 13E    
1 28946U 06007B   25198.84420228 -.00000145  00000+0  00000+0 0  9996
2 28946   1.2046  89.6792 0006095 185.1710 331.7375  0.98118008 70964
EUTELSAT HOTBIRD 13B    
1 29270U 06032A   25198.84953815  .00000162  00000+0  00000+0 0  9996
2 29270   0.7942  86.0010 0003647  34.0065 154.8100  1.00271946 43957
EUTELSAT HOTBIRD 13C    
1 33459U 08065A   25198.86919983 -.00000095  00000+0  00000+0 0  9994
2 33459   2.0869  83.2169 0003222  40.4293 112.6690  1.00271509 43996
EUTELSAT 36B            
1 36101U 09065A   25199.21691590  .00000119  00000+0  00000+0 0  9999
2 36101   0.0538 341.0738 0005614 136.7640 307.0061  1.00268264 57466
EUTELSAT KA-SAT 9A      
1 37258U 10069A   25199.34438382  .00000068  00000+0  00000+0 0  9994
2 37258   0.0633 302.1784 0003572 188.8173 298.3644  1.00268616 53472
EUTELSAT 7 WEST A       
1 37816U 11051A   25198.86919983 -.00000053  00000+0  00000+0 0  9998
2 37816   0.0641 339.8756 0004687 155.6124 106.0312  1.00270746 50610
